H1 CPF 01  gfz 2022 01 05 01  5051 tandemx   
H2 1003001  6202 36605    2022 01 05 00 59 42 2022 01 10 00 00 42   120 1 1  0 0 0
H9
10 0 59588  38862.000000  0    2146814.136  -4465820.973   4776265.416
10 0 59588  38982.000000  0    2205653.706  -5078240.942   4090154.574
10 0 59588  39102.000000  0    2215998.271  -5602511.321   3332049.973
10 0 59588  39222.000000  0    2179287.844  -6028611.301   2515281.363
10 0 59588  39342.000000  0    2097949.361  -6348279.187   1654222.472
10 0 59588  39462.000000  0    1975324.061  -6555179.039    764034.626
10 0 59588  39582.000000  0    1815574.465  -6645032.184   -139605.699
10 0 59588  39702.000000  0    1623574.317  -6615709.643  -1040791.596
10 0 59588  39822.000000  0    1404782.042  -6467278.152  -1923677.179
10 0 59588  39942.000000  0    1165102.468  -6202001.414  -2772763.332
10 0 59588  40062.000000  0     910741.904  -5824297.005  -3573175.887
10 0 59588  40182.000000  0     648060.938  -5340651.258  -4310927.809
10 0 59588  40302.000000  0     383425.900  -4759495.513  -4973162.112
10 0 59588  40422.000000  0     123064.092  -4091047.106  -5548370.172
10 0 59588  40542.000000  0    -127074.013  -3347119.411  -6026583.572
10 0 59588  40662.000000  0    -361442.818  -2540905.177  -6399536.164
10 0 59588  40782.000000  0    -575017.490  -1686738.434  -6660795.508
10 0 59588  40902.000000  0    -763395.882   -799839.687  -6805863.041
10 0 59588  41022.000000  0    -922884.688    103952.247  -6832243.867
10 0 59588  41142.000000  0   -1050568.821   1008457.506  -6739483.821
10 0 59588  41262.000000  0   -1144363.339   1897437.154  -6529176.300
10 0 59588  41382.000000  0   -1203046.905   2754877.238  -6204937.771
10 0 59588  41502.000000  0   -1226276.575   3565271.970  -5772354.025
10 0 59588  41622.000000  0   -1214583.867   4313902.413  -5238893.615
10 0 59588  41742.000000  0   -1169351.564   4987105.165  -4613790.620
10 0 59588  41862.000000  0   -1092772.211   5572527.739  -3907895.686
10 0 59588  41982.000000  0    -987788.138   6059363.620  -3133496.282
10 0 59588  42102.000000  0    -858014.066   6438562.033  -2304109.765
10 0 59588  42222.000000  0    -707643.738   6703008.914  -1434250.987
10 0 59588  42342.000000  0    -541342.959   6847672.012   -539177.712
10 0 59588  42462.000000  0    -364130.553   6869707.626    365380.378
10 0 59588  42582.000000  0    -181250.474   6768524.945   1263505.456
10 0 59588  42702.000000  0       1960.912   6545803.727   2139382.060
10 0 59588  42822.000000  0     180208.873   6205464.113   2977584.562
10 0 59588  42942.000000  0     348372.665   5753592.812   3763355.194
10 0 59588  43062.000000  0     501633.469   5198329.150   4482868.719
10 0 59588  43182.000000  0     635593.900   4549708.849   5123483.183
10 0 59588  43302.000000  0     746385.951   3819467.643   5673958.737
10 0 59588  43422.000000  0     830766.716   3020822.094   6124650.503
10 0 59588  43542.000000  0     886197.779   2168222.329   6467673.202
10 0 59588  43662.000000  0     910907.262   1277085.098   6697033.030
10 0 59588  43782.000000  0     903934.163    363511.423   6808726.236
10 0 59588  43902.000000  0     865153.947   -556004.032   6800803.797
10 0 59588  44022.000000  0     795284.719  -1464869.881   6673404.649
10 0 59588  44142.000000  0     695873.899  -2346697.291   6428753.646
10 0 59588  44262.000000  0     569265.556  -3185596.064   6071125.753
10 0 59588  44382.000000  0     418548.710  -3966463.090   5606773.728
10 0 59588  44502.000000  0     247488.682  -4675255.259   5043823.448
10 0 59588  44622.000000  0      60442.577  -5299246.489   4392139.394
10 0 59588  44742.000000  0    -137740.911  -5827265.923   3663158.184
10 0 59588  44862.000000  0    -341835.915  -6249908.321   2869690.217
10 0 59588  44982.000000  0    -546364.264  -6559711.913   2025694.193
10 0 59588  45102.000000  0    -745727.726  -6751298.218   1146028.946
10 0 59588  45222.000000  0    -934345.461  -6821474.611    246186.753
10 0 59588  45342.000000  0   -1106793.043  -6769291.150   -657989.287
10 0 59588  45462.000000  0   -1257937.823  -6596050.732  -1550593.441
10 0 59588  45582.000000  0   -1383068.035  -6305274.426  -2415944.963
10 0 59588  45702.000000  0   -1478013.102  -5902623.566  -3238869.910
10 0 59588  45822.000000  0   -1539251.873  -5395779.704  -4004971.648
10 0 59588  45942.000000  0   -1564005.754  -4794285.574  -4700883.121
10 0 59588  46062.000000  0   -1550314.751  -4109353.346  -5314495.623
10 0 59588  46182.000000  0   -1497095.374  -3353645.832  -5835161.989
10 0 59588  46302.000000  0   -1404179.150  -2541035.119  -6253872.064
10 0 59588  46422.000000  0   -1272331.235  -1686343.109  -6563397.747
10 0 59588  46542.000000  0   -1103249.416   -805070.484  -6758406.056
10 0 59588  46662.000000  0    -899544.040     86881.413  -6835541.408
10 0 59588  46782.000000  0    -664698.022    973491.793  -6793476.398
10 0 59588  46902.000000  0    -403008.120   1838900.567  -6632931.904
10 0 59588  47022.000000  0    -119509.298   2667684.553  -6356666.305
10 0 59588  47142.000000  0     180118.392   3445127.309  -5969435.140
10 0 59588  47262.000000  0     489659.920   4157478.927  -5477917.845
10 0 59588  47382.000000  0     802488.792   4792199.472  -4890612.861
10 0 59588  47502.000000  0    1111702.980   5338184.948  -4217702.756
10 0 59588  47622.000000  0    1410271.358   5785970.304  -3470887.585
10 0 59588  47742.000000  0    1691187.136   6127903.911  -2663189.434
10 0 59588  47862.000000  0    1947625.212   6358290.721  -1808730.453
10 0 59588  47982.000000  0    2173099.995   6473499.504   -922486.533
10 0 59588  48102.000000  0    2361619.528   6472029.563    -20021.148
10 0 59588  48222.000000  0    2507831.495   6354534.809    882794.152
10 0 59588  48342.000000  0    2607157.528   6123804.705   1770066.367
10 0 59588  48462.000000  0    2655912.301   5784702.557   2626169.056
10 0 59588  48582.000000  0    2651404.695   5344062.687   3436025.505
10 0 59588  48702.000000  0    2592018.481   4810548.644   4185381.246
10 0 59588  48822.000000  0    2477269.647   4194476.256   4861061.119
10 0 59588  48942.000000  0    2307837.443   3507602.675   5451202.515
10 0 59588  49062.000000  0    2085572.185   2762893.677   5945459.077
10 0 59588  49182.000000  0    1813479.853   1974273.326   6335177.897
10 0 59588  49302.000000  0    1495681.527   1156358.105   6613546.333
10 0 59588  49422.000000  0    1137349.573    324182.288   6775703.903
10 0 59588  49542.000000  0     744622.670   -507077.756   6818821.017
10 0 59588  49662.000000  0     324500.431  -1322379.648   6742146.958
10 0 59588  49782.000000  0    -115281.617  -2107087.427   6547022.117
10 0 59588  49902.000000  0    -566394.528  -2847234.367   6236855.628
10 0 59588  50022.000000  0   -1020072.403  -3529772.457   5817067.604
10 0 59588  50142.000000  0   -1467279.625  -4142802.981   5294999.090
10 0 59588  50262.000000  0   -1898889.347  -4675787.958   4679792.262
10 0 59588  50382.000000  0   -2305870.275  -5119739.264   3982237.621
10 0 59588  50502.000000  0   -2679476.573  -5467379.671   3214588.019
10 0 59588  50622.000000  0   -3011435.328  -5713269.456   2390342.987
10 0 59588  50742.000000  0   -3294127.829  -5853897.202   1524009.593
10 0 59588  50862.000000  0   -3520760.862  -5887733.355    630842.738
10 0 59588  50982.000000  0   -3685523.484  -5815244.045   -273430.217
10 0 59588  51102.000000  0   -3783725.240  -5638864.944  -1172894.784
10 0 59588  51222.000000  0   -3811911.953  -5362934.722  -2051738.759
10 0 59588  51342.000000  0   -3767956.118  -4993589.834  -2894538.271
10 0 59588  51462.000000  0   -3651119.490  -4538623.980  -3686534.002
10 0 59588  51582.000000  0   -3462086.511  -4007316.962  -4413891.110
10 0 59588  51702.000000  0   -3202969.144  -3410238.471  -5063938.400
10 0 59588  51822.000000  0   -2877283.448  -2759031.179  -5625383.272
10 0 59588  51942.000000  0   -2489899.127  -2066178.740  -6088498.874
10 0 59588  52062.000000  0   -2046963.192  -1344764.010  -6445282.664
10 0 59588  52182.000000  0   -1555798.821   -608221.431  -6689583.416
10 0 59588  52302.000000  0   -1024783.157    129910.634  -6817195.412
10 0 59588  52422.000000  0    -463206.385    856232.949  -6825922.340
10 0 59588  52542.000000  0     118887.663   1557722.417  -6715611.186
10 0 59588  52662.000000  0     710875.524   2221959.140  -6488155.069
10 0 59588  52782.000000  0    1301743.676   2837342.412  -6147466.566
10 0 59588  52902.000000  0    1880289.425   3393291.571  -5699417.177
10 0 59588  53022.000000  0    2435329.478   3880428.188  -5151745.680
10 0 59588  53142.000000  0    2955913.915   4290737.087  -4513936.084
10 0 59588  53262.000000  0    3431541.913   4617704.722  -3797064.620
10 0 59588  53382.000000  0    3852374.994   4856430.365  -3013616.566
10 0 59588  53502.000000  0    4209443.910   5003707.141  -2177274.655
10 0 59588  53622.000000  0    4494842.049   5058069.858  -1302682.413
10 0 59588  53742.000000  0    4701902.560   5019810.276   -405186.945
10 0 59588  53862.000000  0    4825353.361   4890955.428    499436.118
10 0 59588  53982.000000  0    4861443.846   4675210.436   1395266.638
10 0 59588  54102.000000  0    4808043.174   4377869.355   2266527.336
10 0 59588  54222.000000  0    4664707.331   4005693.281   3097871.446
10 0 59588  54342.000000  0    4432709.472   3566758.167   3874661.774
10 0 59588  54462.000000  0    4115034.689   3070277.863   4583233.446
10 0 59588  54582.000000  0    3716341.960   2526407.980   5211136.292
10 0 59588  54702.000000  0    3242890.503   1946033.660   5747354.575
10 0 59588  54822.000000  0    2702434.783   1340548.183   6182495.410
10 0 59588  54942.000000  0    2104092.627    721626.073   6508947.364
10 0 59588  55062.000000  0    1458187.505    100997.284   6721006.401
10 0 59588  55182.000000  0     776068.013   -509773.661   6814971.129
10 0 59588  55302.000000  0      69906.981  -1099503.450   6789204.095
99
